IRIDIUM 136             
1 42962U 17061H   24183.63785219  .00000286  00000+0  95209-4 0  9991
2 42962  86.3977 324.2785 0002005 100.9879 259.1542 14.34218413352275
